{
  "type": "FeatureCollection",
  "features": [
    {
      "type": "Feature",
      "properties": {
        "norad_id": 55973,
        "name": "TIANMU-1 03",
        "group": "weather",
        "lat": -10.29771370455044,
        "lon": 148.4442395089833,
        "alt_km": 447.38855172080184,
        "timestamp": "2025-12-10T11:33:53.034425+00:00",
        "meta_object_name": "TIANMU-1 03",
        "meta_object_id": "2023-039A",
        "meta_epoch": "2025-12-10T03:48:59.465376",
        "meta_mean_motion": 15.40801494,
        "meta_eccentricity": 0.0004491,
        "meta_inclination": 97.5113,
        "meta_ra_of_asc_node": 146.7388,
        "meta_arg_of_pericenter": 68.445,
        "meta_mean_anomaly": 291.7274,
        "meta_ephemeris_type": 0,
        "meta_classification_type": "U",
        "meta_norad_cat_id": 55973,
        "meta_element_set_no": 999,
        "meta_rev_at_epoch": 15166,
        "meta_bstar": 0.00052442,
        "meta_mean_motion_dot": 0.00021435,
        "meta_mean_motion_ddot": 0,
        "tle_line1": "1 55973U 23039A   25344.15902159  .00021435  00000+0  52442-3 0  9990",
        "tle_line2": "2 55973  97.5113 146.7388 0004491  68.4450 291.7274 15.40801494151666"
      },
      "geometry": {
        "type": "Point",
        "coordinates": [
          148.4442395089833,
          -10.29771370455044
        ]
      }
    },
    {
      "type": "Feature",
      "properties": {
        "norad_id": 55974,
        "name": "TIANMU-1 04",
        "group": "weather",
        "lat": 76.63679408285569,
        "lon": -0.03272066177081757,
        "alt_km": 432.71406455592296,
        "timestamp": "2025-12-10T11:33:53.034435+00:00",
        "meta_object_name": "TIANMU-1 04",
        "meta_object_id": "2023-039B",
        "meta_epoch": "2025-12-10T04:53:42.041184",
        "meta_mean_motion": 15.41138467,
        "meta_eccentricity": 0.0005182,
        "meta_inclination": 97.5043,
        "meta_ra_of_asc_node": 145.9771,
        "meta_arg_of_pericenter": 64.013,
        "meta_mean_anomaly": 296.165,
        "meta_ephemeris_type": 0,
        "meta_classification_type": "U",
        "meta_norad_cat_id": 55974,
        "meta_element_set_no": 999,
        "meta_rev_at_epoch": 15167,
        "meta_bstar": 0.0005271,
        "meta_mean_motion_dot": 0.0002179,
        "meta_mean_motion_ddot": 0,
        "tle_line1": "1 55974U 23039B   25344.20395881  .00021790  00000+0  52710-3 0  9997",
        "tle_line2": "2 55974  97.5043 145.9771 0005182  64.0130 296.1650 15.41138467151673"
      },
      "geometry": {
        "type": "Point",
        "coordinates": [
          -0.03272066177081757,
          76.63679408285569
        ]
      }
    },
    {
      "type": "Feature",
      "properties": {
        "norad_id": 55975,
        "name": "TIANMU-1 05",
        "group": "weather",
        "lat": 43.4118420952321,
        "lon": -26.07662994685777,
        "alt_km": 438.4411485920782,
        "timestamp": "2025-12-10T11:33:53.034446+00:00",
        "meta_object_name": "TIANMU-1 05",
        "meta_object_id": "2023-039C",
        "meta_epoch": "2025-12-10T04:44:31.096896",
        "meta_mean_motion": 15.4076134,
        "meta_eccentricity": 0.0004374,
        "meta_inclination": 97.509,
        "meta_ra_of_asc_node": 146.4628,
        "meta_arg_of_pericenter": 85.0223,
        "meta_mean_anomaly": 275.1522,
        "meta_ephemeris_type": 0,
        "meta_classification_type": "U",
        "meta_norad_cat_id": 55975,
        "meta_element_set_no": 999,
        "meta_rev_at_epoch": 15165,
        "meta_bstar": 0.00051514,
        "meta_mean_motion_dot": 0.00021025,
        "meta_mean_motion_ddot": 0,
        "tle_line1": "1 55975U 23039C   25344.19758214  .00021025  00000+0  51514-3 0  9991",
        "tle_line2": "2 55975  97.5090 146.4628 0004374  85.0223 275.1522 15.40761340151655"
      },
      "geometry": {
        "type": "Point",
        "coordinates": [
          -26.07662994685777,
          43.4118420952321
        ]
      }
    },
    {
      "type": "Feature",
      "properties": {
        "norad_id": 55976,
        "name": "TIANMU-1 06",
        "group": "weather",
        "lat": 82.34711436682566,
        "lon": 68.15934682153382,
        "alt_km": 431.90187464255814,
        "timestamp": "2025-12-10T11:33:53.034457+00:00",
        "meta_object_name": "TIANMU-1 06",
        "meta_object_id": "2023-039D",
        "meta_epoch": "2025-12-10T03:23:27.650400",
        "meta_mean_motion": 15.41188264,
        "meta_eccentricity": 0.000473,
        "meta_inclination": 97.5101,
        "meta_ra_of_asc_node": 146.8679,
        "meta_arg_of_pericenter": 81.085,
        "meta_mean_anomaly": 279.0931,
        "meta_ephemeris_type": 0,
        "meta_classification_type": "U",
        "meta_norad_cat_id": 55976,
        "meta_element_set_no": 999,
        "meta_rev_at_epoch": 15166,
        "meta_bstar": 0.00052481,
        "meta_mean_motion_dot": 0.00021729,
        "meta_mean_motion_ddot": 0,
        "tle_line1": "1 55976U 23039D   25344.14129225  .00021729  00000+0  52481-3 0  9996",
        "tle_line2": "2 55976  97.5101 146.8679 0004730  81.0850 279.0931 15.41188264151664"
      },
      "geometry": {
        "type": "Point",
        "coordinates": [
          68.15934682153382,
          82.34711436682566
        ]
      }
    },
    {
      "type": "Feature",
      "properties": {
        "norad_id": 56232,
        "name": "FENGYUN 3G",
        "group": "weather",
        "lat": 35.815921868943555,
        "lon": -83.58714402658022,
        "alt_km": 401.5420949663303,
        "timestamp": "2025-12-10T11:33:53.034468+00:00",
        "meta_object_name": "FENGYUN 3G",
        "meta_object_id": "2023-055A",
        "meta_epoch": "2025-12-10T03:37:55.254144",
        "meta_mean_motion": 15.53399259,
        "meta_eccentricity": 0.0009295,
        "meta_inclination": 49.9932,
        "meta_ra_of_asc_node": 240.8099,
        "meta_arg_of_pericenter": 136.1323,
        "meta_mean_anomaly": 224.0384,
        "meta_ephemeris_type": 0,
        "meta_classification_type": "U",
        "meta_norad_cat_id": 56232,
        "meta_element_set_no": 999,
        "meta_rev_at_epoch": 15062,
        "meta_bstar": 0.00065278,
        "meta_mean_motion_dot": 0.0004196,
        "meta_mean_motion_ddot": 0,
        "tle_line1": "1 56232U 23055A   25344.15133396  .00041960  00000+0  65278-3 0  9992",
        "tle_line2": "2 56232  49.9932 240.8099 0009295 136.1323 224.0384 15.53399259150620"
      },
      "geometry": {
        "type": "Point",
        "coordinates": [
          -83.58714402658022,
          35.815921868943555
        ]
      }
    },
    {
      "type": "Feature",
      "properties": {
        "norad_id": 57166,
        "name": "METEOR-M2 3",
        "group": "weather",
        "lat": -18.728169606953966,
        "lon": -144.893628609604,
        "alt_km": 819.6895893127867,
        "timestamp": "2025-12-10T11:33:53.034477+00:00",
        "meta_object_name": "METEOR-M2 3",
        "meta_object_id": "2023-091A",
        "meta_epoch": "2025-12-10T03:53:19.183776",
        "meta_mean_motion": 14.24025665,
        "meta_eccentricity": 0.0004055,
        "meta_inclination": 98.6381,
        "meta_ra_of_asc_node": 37.7463,
        "meta_arg_of_pericenter": 16.0228,
        "meta_mean_anomaly": 344.1078,
        "meta_ephemeris_type": 0,
        "meta_classification_type": "U",
        "meta_norad_cat_id": 57166,
        "meta_element_set_no": 999,
        "meta_rev_at_epoch": 12761,
        "meta_bstar": 4.0525e-05,
        "meta_mean_motion_dot": 5e-07,
        "meta_mean_motion_ddot": 0,
        "tle_line1": "1 57166U 23091A   25344.16202759  .00000050  00000+0  40525-4 0  9994",
        "tle_line2": "2 57166  98.6381  37.7463 0004055  16.0228 344.1078 14.24025665127614"
      },
      "geometry": {
        "type": "Point",
        "coordinates": [
          -144.893628609604,
          -18.728169606953966
        ]
      }
    },
    {
      "type": "Feature",
      "properties": {
        "norad_id": 57399,
        "name": "TIANMU-1 07",
        "group": "weather",
        "lat": -79.0683594906886,
        "lon": 172.88335594225998,
        "alt_km": 492.9573763222061,
        "timestamp": "2025-12-10T11:33:53.034488+00:00",
        "meta_object_name": "TIANMU-1 07",
        "meta_object_id": "2023-101A",
        "meta_epoch": "2025-12-10T04:08:08.986272",
        "meta_mean_motion": 15.28010204,
        "meta_eccentricity": 0.0005635,
        "meta_inclination": 97.2877,
        "meta_ra_of_asc_node": 34.0785,
        "meta_arg_of_pericenter": 88.0213,
        "meta_mean_anomaly": 272.1672,
        "meta_ephemeris_type": 0,
        "meta_classification_type": "U",
        "meta_norad_cat_id": 57399,
        "meta_element_set_no": 999,
        "meta_rev_at_epoch": 13276,
        "meta_bstar": 0.00037512,
        "meta_mean_motion_dot": 0.00010186,
        "meta_mean_motion_ddot": 0,
        "tle_line1": "1 57399U 23101A   25344.17232623  .00010186  00000+0  37512-3 0  9990",
        "tle_line2": "2 57399  97.2877  34.0785 0005635  88.0213 272.1672 15.28010204132762"
      },
      "geometry": {
        "type": "Point",
        "coordinates": [
          172.88335594225998,
          -79.0683594906886
        ]
      }
    }
  ]
}